51P-A/Harrington,e,5.4258,83.6766,269.2559,3.708064,0.1380331,0.54346359,307.2784,09/17.0/2021,2000,g 10.0,8.0
# From NK 3013
51P-D/Harrington,e,5.4265,83.6615,269.2945,3.707074,0.1380884,0.54339344,307.5545,09/17.0/2021,2000,g 16.0,8.0
# From MPEC 2021-R75
52P/Harrington-Abell,e,10.2317,336.8380,139.5944,3.864132,0.1297556,0.54006998,357.6394,09/17.0/2021,2000,g 13.5,6.0
# From MPC100283
53P/Van Biesbroeck,e,6.6096,148.8104,134.4895,5.427963,0.0779379,0.55171182,153.1598,09/17.0/2021,2000,g  7.7,4.8
# From MPC 89011
54P/de Vico-Swift-NEAT,e,6.0645,358.8164,1.7894,3.791212,0.1335171,0.42611028,215.4503,09/17.0/2021,2000,g  9.0,4.0
# From MPC 31070
55P/Tempel-Tuttle,e,162.4408,235.4082,172.4977,10.35529,0.0295774,0.90605238,255.5788,09/17.0/2021,2000,g  9.0,4.0
# From MPC101100
56P/Slaughter-Burnham,e,8.1613,345.9961,43.9790,5.068918,0.0863637,0.50769791,162.8105,09/17.0/2021,2000,g  8.5,6.0
# From MPEC 2021-R75
57P/duToit-Neujmin-Delporte,e,2.8509,188.7756,115.2622,3.446779,0.1540224,0.50095137,355.3142,09/17.0/2021,2000,g 12.5,6.0
# From MPEC 2021-O56
58P/Jackson-Neujmin,e,13.1085,159.0750,200.4877,4.085366,0.1193597,0.66278870,56.9816,09/17.0/2021,2000,g 15.5,6.0
# From MPEC 2021-F20
59P/Kearns-Kwee,e,9.3414,312.8322,127.5231,4.486486,0.1037157,0.47522738,113.7281,09/17.0/2021,2000,g  7.0,6.0
# From MPEC 2021-F20
60P/Tsuchinshan,e,3.5871,267.5277,216.9709,3.523811,0.1489996,0.53446918,150.9191,09/17.0/2021,2000,g 11.5,6.0
# From MPEC 2015-Q71
61P/Shajn-Schaldach,e,5.9989,162.9744,221.8060,3.687832,0.1391706,0.42397296,304.0246,09/17.0/2021,2000,g  6.0,10.0
# From MPC109147
62P/Tsuchinshan,e,4.7495,69.2049,47.1547,3.357040,0.1602394,0.62812123,227.3431,09/17.0/2021,2000,g  8.0,10.0
# From MPC 84320
63P/Wild,e,19.7277,358.0184,169.0837,5.607283,0.0742293,0.64883515,229.3742,09/17.0/2021,2000,g 10.5,6.0
# From MPEC 2021-F20
64P/Swift-Gehrels,e,8.9497,299.9890,97.0709,4.453367,0.1048748,0.68809043,109.8722,09/17.0/2021,2000,g 13.4,4.0
# From MPEC 2021-F20
65P/Gunn,e,9.1785,62.0142,213.8924,3.886364,0.1286438,0.24928613,184.0061,09/17.0/2021,2000,g 11.2,4.0
# From MPEC 2021-F20
66P/duToit,e,18.6465,21.8176,257.4048,6.067473,0.0659466,0.78662470,80.2552,09/17.0/2021,2000,g 15.0,4.0
# From MPEC 2021-R75
67P/Churyumov-Gerasimenko,e,3.8715,36.3333,22.1310,3.456240,0.1533905,0.64972675,352.9348,09/17.0/2021,2000,g 11.0,4.0
# From MPC 75716
68P/Klemola,e,11.1106,175.0560,153.1571,4.954497,0.0893727,0.63764576,60.5800,09/17.0/2021,2000,g 10.0,4.0
# From MPC114607
69P/Taylor,e,22.0347,104.8232,343.4295,3.886860,0.1286192,0.41317719,117.5476,09/17.0/2021,2000,g  9.5,12.0
# From MPEC 2021-R75
70P/Kojima,e,6.5981,119.2683,1.8311,3.677423,0.1397618,0.45369432,353.4143,09/17.0/2021,2000,g 11.0,6.0
# From MPC107051
71P/Clark,e,9.4376,59.4102,209.0593,3.138251,0.1772852,0.49388985,272.8495,09/17.0/2021,2000,g  9.8,6.0
# From MPC 89011
72P/Denning-Fujikawa,e,10.9440,26.6937,346.6947,4.310371,0.1101367,0.81849485,289.8493,09/17.0/2021,2000,g 17.5,10.0
# From MPC106348
73P/Schwassmann-Wachmann,e,11.2282,69.6234,199.4752,3.092738,0.1812130,0.68547384,297.9034,09/17.0/2021,2000,g 11.5,6.0
# From MPC106348
73P-T/Schwassmann-Wachmann,e,11.2303,69.6260,199.4566,3.094303,0.1810756,0.68567621,297.6789,09/17.0/2021,2000,g 11.5,6.0
# From MPC xxxxx
74P/Smirnova-Chernykh,e,6.0476,69.0945,112.8119,4.361490,0.1082061,0.14241780,132.2151,09/17.0/2021,2000,g 11.3,4.0
# From MPEC 2021-F20
76P/West-Kohoutek-Ikemura,e,30.4619,84.1136,359.9588,3.472203,0.1523338,0.53818120,105.4084,09/17.0/2021,2000,g 15.5,4.0
# From MPC100283
77P/Longmore,e,24.3184,14.7766,196.8214,3.622237,0.1429680,0.35195977,279.4599,09/17.0/2021,2000,g  7.0,8.0
# From MPEC 2021-O56
78P/Gehrels,e,6.2523,210.5171,192.6334,3.738504,0.1363507,0.46222484,122.4452,09/17.0/2021,2000,g  5.5,8.0
# From MPC 94675
79P/du Toit-Hartley,e,3.1479,280.5318,281.7910,2.943022,0.1952153,0.61882526,214.8204,09/17.0/2021,2000,g 16.0,4.0
# From MPEC 2014-P41
80P/Peters-Hartley,e,29.9275,259.8126,339.2516,4.024308,0.1220864,0.59874462,305.3246,09/17.0/2021,2000,g  9.0,4.0
# From MPEC 2021-R75
81P/Wild,e,3.2368,136.0962,41.6702,3.452051,0.1536697,0.53704703,290.1256,09/17.0/2021,2000,g  7.0,6.0
# From MPC133426
82P/Gehrels,e,1.1288,239.3090,226.6073,4.134936,0.1172198,0.12170177,138.3903,09/17.0/2021,2000,g 15.0,4.0
# From MPEC 2020-FB5
84P/Giclas,e,7.5516,108.1716,281.5744,3.549209,0.1474031,0.51579127,69.2946,09/17.0/2021,2000,g  9.5,8.0
# From MPC109147
86P/Wild,e,15.4746,72.3574,179.3954,3.601759,0.1441890,0.37233721,339.2985,09/17.0/2021,2000,g 11.0,6.0
# From MPEC 2020-SI8
87P/Bus,e,2.6137,181.6201,25.4868,3.449396,0.1538472,0.39096335,76.0619,09/17.0/2021,2000,g  7.2,10.0
# From MPEC 2021-R75
88P/Howell,e,4.3835,56.6799,235.9035,3.105170,0.1801259,0.56419559,64.0236,09/17.0/2021,2000,g 11.0,6.0
# From MPC100283
89P/Russell,e,12.0694,41.3717,250.3615,3.753863,0.1355147,0.40853698,235.1751,09/17.0/2021,2000,g 11.5,6.0
# From MPC107051
90P/Gehrels,e,9.6484,13.2049,29.0557,6.052119,0.0661977,0.51030618,102.6282,09/17.0/2021,2000,g  8.5,6.0
# From MPEC 2021-R75
91P/Russell,e,14.0812,247.7774,354.9637,3.896994,0.1281178,0.33162846,39.8603,09/17.0/2021,2000,g  7.5,6.0
# From MPEC 2014-J58
92P/Sanguin,e,19.5005,181.3658,163.7617,5.344011,0.0797817,0.66100351,190.5147,09/17.0/2021,2000,g 12.0,6.0
# From NK 2707
93P/Lovas,e,12.2037,339.6502,74.8048,4.382299,0.1074363,0.61275439,178.4377,09/17.0/2021,2000,g  9.0,4.0
# From MPEC 2020-W26
94P/Russell,e,6.1880,70.8583,92.4540,3.507526,0.1500385,0.36496691,268.2757,09/17.0/2021,2000,g  9.0,6.0
# From MPC 75717
95P/Chiron,e,6.9279,209.2807,339.6783,13.70381,0.0194286,0.37694011,182.2569,09/17.0/2021,2000,g  6.5,2.0
# From MPEC 2017-T14
96P/Machholz,e,57.5471,93.9787,14.7452,3.028625,0.1869975,0.96157717,266.2822,09/17.0/2021,2000,g  9.0,4.0
# From MPC 77020
97P/Metcalf-Brewington,e,17.9510,184.0768,229.9437,4.761074,0.0948739,0.46014997,345.6313,09/17.0/2021,2000,g  5.5,6.0
# From MPEC 2013-H38
98P/Takamizawa,e,10.5601,114.7035,157.8789,3.798633,0.1331261,0.56236679,33.9656,09/17.0/2021,2000,g  9.0,8.0
# From MPEC 2021-L04
99P/Kowal,e,4.3392,28.1034,174.9634,6.108187,0.0652883,0.22956161,346.4248,09/17.0/2021,2000,g  4.5,6.0
# From MPEC 2013-O31
100P/Hartley,e,25.5645,37.6946,181.9872,3.432429,0.1549893,0.41227819,309.1654,09/17.0/2021,2000,g  9.0,4.0
# From MPEC 2020-FB5
101P/Chernykh,e,5.0525,116.2279,277.7056,5.803861,0.0704902,0.59604906,43.2336,09/17.0/2021,2000,g 10.0,4.8
# From MPC 86232
102P/Shoemaker,e,25.8849,339.3650,20.5560,3.813159,0.1323661,0.45712368,31.4465,09/17.0/2021,2000,g  6.5,8.0
# From MPEC 2018-HA5
103P/Hartley,e,13.6036,219.7348,181.2819,3.475962,0.1520868,0.69336027,245.0626,09/17.0/2021,2000,g  8.5,8.0
# From MPEC 2021-R75
104P/Kowal,e,5.7012,207.2241,227.2418,3.207804,0.1715506,0.66542919,339.9867,09/17.0/2021,2000,g 16.0,4.0
# From MPC109147
105P/Singer Brewster,e,9.1697,192.4079,46.4875,3.467704,0.1526304,0.40932759,173.1730,09/17.0/2021,2000,g 11.5,6.0
# From MPEC 2021-P47
106P/Schuster,e,19.5364,48.8859,353.6677,3.762167,0.1350663,0.59368398,3.9479,09/17.0/2021,2000,g 14.0,4.8
# From MPEC 2015-M77
107P/Wilson-Harrington,e,2.7989,266.7861,95.4207,2.625042,0.2317392,0.63164493,280.8196,09/17.0/2021,2000,g  9.0,4.0
# From MPEC 2021-P47
108P/Ciffreo,e,11.4379,50.2922,354.4145,3.737886,0.1363845,0.55582254,0.9434,09/17.0/2021,2000,g  8.0,12.0
# From  105, 420
109P/Swift-Tuttle,e,113.9903,139.0367,152.9290,26.15127,0.0073700,0.96278897,77.4851,09/17.0/2021,2000,g  4.0,6.0
# From MPEC 2021-R75
110P/Hartley,e,11.7070,287.5351,167.4461,3.601903,0.1441804,0.31821511,355.4864,09/17.0/2021,2000,g  1.0,12.0
# From MPC 75718
111P/Helin-Roman-Crockett,e,4.2267,89.7663,0.9773,4.147856,0.1166725,0.10613652,10.9044,09/17.0/2021,2000,g  5.0,8.0
# From MPEC 2021-F20
112P/Urata-Niijima,e,24.1992,31.8336,21.4769,3.525375,0.1489005,0.58998305,87.4001,09/17.0/2021,2000,g 15.3,4.0
# From MPEC 2021-P47
113P/Spitaler,e,5.2914,306.6946,115.4292,3.695557,0.1387344,0.42038073,324.3161,09/17.0/2021,2000,g 13.5,4.0
# From MPEC 2021-N06
114P/Wiseman-Skiff,e,18.2744,271.0469,172.7630,3.544819,0.1476771,0.55480760,90.3728,09/17.0/2021,2000,g 11.5,6.0
# From MPEC 2020-SI8
115P/Maury,e,11.6775,176.0096,120.9790,4.272050,0.1116219,0.51852930,46.2568,09/17.0/2021,2000,g 10.5,6.0
# From MPEC 2021-R75
116P/Wild,e,3.6035,20.9838,173.3273,3.490142,0.1511609,0.37059944,314.1918,09/17.0/2021,2000,g  2.5,10.0
# From MPEC 2021-R75
117P/Helin-Roman-Alu,e,8.7032,58.8413,222.8884,4.083909,0.1194235,0.25564366,324.9472,09/17.0/2021,2000,g  2.5,8.0
# From MPEC 2021-N06
118P/Shoemaker-Levy,e,10.0963,142.1128,314.5836,3.355726,0.1603335,0.45445192,290.6412,09/17.0/2021,2000,g 12.0,4.0
# From MPEC 2021-P47
119P/Parker-Hartley,e,7.3952,104.6204,321.8768,3.811685,0.1324429,0.38922730,316.4958,09/17.0/2021,2000,g  3.5,8.0
# From MPEC 2020-SI8
120P/Mueller,e,8.4899,358.6730,36.5722,3.961921,0.1249814,0.37456927,16.5990,09/17.0/2021,2000,g 12.0,4.0
# From MPEC 2020-SI8
121P/Shoemaker-Holt,e,20.1633,94.1228,11.4227,4.584397,0.1004109,0.18577081,294.8904,09/17.0/2021,2000,g  6.5,8.0
# From MPC 75718
122P/de Vico,e,85.0232,79.5720,13.0028,17.62536,0.0133198,0.96225359,126.5964,09/17.0/2021,2000,g  7.5,5.2
# From MPEC 2021-F20
123P/West-Hartley,e,15.2867,46.0832,103.9743,3.875956,0.1291623,0.44631316,123.4428,09/17.0/2021,2000,g 12.2,4.0
# From MPEC 2021-F20
124P/Mrkos,e,31.5468,0.2814,184.1051,3.323413,0.1626775,0.50336161,82.6241,09/17.0/2021,2000,g 15.2,4.0
# From MPEC 2015-M77
125P/Spacewatch,e,9.9866,153.1463,87.2398,3.126219,0.1783097,0.51253211,199.1260,09/17.0/2021,2000,g  9.0,4.0
# From MPC 66205
126P/IRAS,e,45.8736,357.8680,356.5369,5.638954,0.0736048,0.69634352,311.6928,09/17.0/2021,2000,g  9.0,4.0
# From MPC 84321
127P/Holt-Olmstead,e,14.2964,13.6262,6.4244,3.452762,0.1536223,0.35997593,309.6271,09/17.0/2021,2000,g 11.0,6.0
# From MPC 89014
128P/Shoemaker-Holt,e,4.3682,214.3021,210.2824,4.491496,0.1035422,0.32093096,177.2266,09/17.0/2021,2000,g  8.5,4.0
# From MPEC 2019-TG9
